{
    "links": {
        "self": "http://www.neowsapp.com/rest/v1/neo/54050994?api_key=iIulBulltgU6a56xZRHN4H3l9WmuAYTsLGpBGhQ2"
    },
    "id": "54050994",
    "neo_reference_id": "54050994",
    "name": "(2020 PJ1)",
    "designation": "2020 PJ1",
    "nasa_jpl_url": "http://ssd.jpl.nasa.gov/sbdb.cgi?sstr=54050994",
    "absolute_magnitude_h": 25.076,
    "estimated_diameter": {
        "kilometers": {
            "estimated_diameter_min": 0.0256658101,
            "estimated_diameter_max": 0.0573904961
        },
        "meters": {
            "estimated_diameter_min": 25.6658100992,
            "estimated_diameter_max": 57.3904960795
        },
        "miles": {
            "estimated_diameter_min": 0.0159479901,
            "estimated_diameter_max": 0.0356607899
        },
        "feet": {
            "estimated_diameter_min": 84.205416406,
            "estimated_diameter_max": 188.2890351574
        }
    },
    "is_potentially_hazardous_asteroid": false,
    "close_approach_data": [
        {
            "close_approach_date": "2020-08-03",
            "close_approach_date_full": "2020-Aug-03 09:32",
            "epoch_date_close_approach": 1596447120000,
            "relative_velocity": {
                "kilometers_per_second": "18.4409479824",
                "kilometers_per_hour": "66387.4127368186",
                "miles_per_hour": "41250.5565419415"
            },
            "miss_distance": {
                "astronomical": "0.0304703071",
                "lunar": "11.8529494619",
                "kilometers": "4558293.040405877",
                "miles": "2832391.9555480226"
            },
            "orbiting_body": "Earth"
        }
    ],
    "orbital_data": {
        "orbit_id": "2",
        "orbit_determination_date": "2020-08-14 07:24:31",
        "first_observation_date": "2020-08-11",
        "last_observation_date": "2020-08-13",
        "data_arc_in_days": 2,
        "observations_used": 26,
        "orbit_uncertainty": "9",
        "minimum_orbit_intersection": ".0222196",
        "jupiter_tisserand_invariant": "3.867",
        "epoch_osculation": "2459073.5",
        "eccentricity": ".6289195925684594",
        "semi_major_axis": "1.74815331149094",
        "inclination": "9.060293614040148",
        "ascending_node_longitude": "304.8338386446823",
        "orbital_period": "844.2434554498835",
        "perihelion_distance": ".6487054430808551",
        "perihelion_argument": "282.0960412922552",
        "aphelion_distance": "2.847601179901026",
        "perihelion_time": "2459015.582873813284",
        "mean_anomaly": "24.69686355591237",
        "mean_motion": ".4264172824510222",
        "equinox": "J2000",
        "orbit_class": {
            "orbit_class_type": "APO",
            "orbit_class_description": "Near-Earth asteroid orbits which cross the Earth’s orbit similar to that of 1862 Apollo",
            "orbit_class_range": "a (semi-major axis) > 1.0 AU; q (perihelion) < 1.017 AU"
        }
    },
    "is_sentry_object": false
}